     2.10           NAVIGATION DATA                         RINEX VERSION / TYPE
SPIDER V4,0,0,3554                      2015 03 31 05:00    PGM / RUN BY / DATE 
   1.6764D-08  0.0000D+00 -1.1921D-07  5.9605D-08           ION ALPHA           
   1.2288D+05 -3.2768D+04 -1.9661D+05 -6.5536D+04           ION BETA            
    1.862645149231D-09-1.776356839400D-15   503808     1833 DELTA-UTC: A0,A1,T,W
    16                                                      LEAP SECONDS        
                                                            END OF HEADER       
11 15 02 25 06 00  0.0-5.602412857115D-04-2.614797267597D-12 0.000000000000D+00
    4.000000000000D+01-9.968750000000D+00 6.522057560687D-09 8.632272089925D-01
   -4.917383193970D-07 1.562069344800D-02 6.914138793945D-06 5.153724323273D+03
    2.808000000000D+05-2.905726432800D-07-6.423636786256D-01 1.676380634308D-08
    8.925808606727D-01 2.149375000000D+02 1.383432436943D+00-9.303959380702D-09
    1.235765795249D-10 1.000000000000D+00 1.833000000000D+03 0.000000000000D+00
    2.000000000000D+00 0.000000000000D+00-1.210719347000D-08 4.000000000000D+01
    2.808000000000D+05 0.000000000000D+00
14 15 02 25 06 00  0.0 8.425861597061D-05-3.524291969370D-12 0.000000000000D+00
    3.900000000000D+01 7.481250000000D+01 4.115885854361D-09-2.908509190031D+00
    3.917142748833D-06 7.751410361379D-03 9.156763553619D-06 5.153793027878D+03
    2.808000000000D+05 2.980232238770D-08 1.865746878269D+00-4.842877388000D-08
    9.671152114076D-01 2.045937500000D+02-1.974749825994D+00-7.746751684579D-09
    9.464679734394D-11 1.000000000000D+00 1.833000000000D+03 0.000000000000D+00
    2.000000000000D+00 0.000000000000D+00-9.313225746155D-09 3.900000000000D+01
    2.808000000000D+05 0.000000000000D+00
19 15 02 25 06 00  0.0-5.018189549446D-04-1.364242052659D-12 0.000000000000D+00
    6.600000000000D+01-1.993750000000D+01 4.365181993649D-09 2.750707427925D+00
   -1.087784767151D-06 1.099629770033D-02 8.560717105865D-06 5.153702537537D+03
    2.808000000000D+05-1.061707735062D-07-1.257965424406D+00-1.769512891769D-07
    9.683448306262D-01 2.194062500000D+02 5.195513299012D-01-7.792110068294D-09
    2.800116527535D-10 1.000000000000D+00 1.833000000000D+03 0.000000000000D+00
    2.000000000000D+00 0.000000000000D+00-1.490116119385D-08 6.600000000000D+01
    2.808000000000D+05 0.000000000000D+00
22 15 02 25 06 00  0.0 3.220979124308D-04 4.092726157978D-12 0.000000000000D+00
    9.500000000000D+01-1.303125000000D+01 5.369152233925D-09-1.710267764866D+00
   -7.655471563339D-07 7.530028582551D-03 8.614733815193D-06 5.153696054459D+03
    2.808000000000D+05 2.197921276093D-07 7.261004277630D-01-6.146728992462D-08
    9.231798477005D-01 1.932187500000D+02-2.068141973432D+00-8.324275491134D-09
   -3.614436250299D-10 1.000000000000D+00 1.833000000000D+03 0.000000000000D+00
    2.800000000000D+00 0.000000000000D+00-1.769512891769D-08 9.500000000000D+01
    2.808000000000D+05 0.000000000000D+00
27 15 02 25 06 00  0.0 5.384394899011D-05 2.614797267597D-12 0.000000000000D+00
    8.300000000000D+01-2.456250000000D+01 4.447685331144D-09-2.641061319971D+00
   -1.288950443268D-06 2.051261952147D-03 8.860602974892D-06 5.153688531876D+03
    2.808000000000D+05-2.793967723846D-08-1.355142720231D+00-4.470348358154D-08
    9.661056896770D-01 2.133437500000D+02 1.369951595640D-01-7.954974456936D-09
    2.528676712465D-10 1.000000000000D+00 1.833000000000D+03 0.000000000000D+00
    2.000000000000D+00 0.000000000000D+00 1.862645149231D-09 8.300000000000D+01
    2.808000000000D+05 0.000000000000D+00
32 15 02 25 06 00  0.0-2.154307439923D-04 9.208633855451D-12 0.000000000000D+00
    9.500000000000D+01-7.375000000000D+00 4.808414555413D-09 1.285533682586D+00
   -3.278255462646D-07 1.131251058541D-02 9.128823876381D-06 5.153571315765D+03
    2.808000000000D+05-8.009374141693D-08 8.247899946711D-01 2.216547727585D-07
    9.471963880172D-01 1.964687500000D+02 2.393064800754D-02-8.101409321171D-09
   -4.171602230318D-10 1.000000000000D+00 1.833000000000D+03 0.000000000000D+00
    2.800000000000D+00 0.000000000000D+00-3.725290298462D-09 9.500000000000D+01
    2.808000000000D+05 0.000000000000D+00
28 15 02 25 06 00  0.0 4.219054244459D-04 2.614797267597D-12 0.000000000000D+00
    1.700000000000D+01-4.065625000000D+01 3.868732445511D-09-1.932267125310D+00
   -1.873821020126D-06 1.967218786012D-02 7.484108209610D-06 5.153691549301D+03
    2.808000000000D+05 2.756714820862D-07-2.330626498920D+00 2.477318048477D-07
    9.885040099941D-01 2.426875000000D+02-1.669037949650D+00-7.585673422739D-09
    2.928693398907D-11 1.000000000000D+00 1.833000000000D+03 0.000000000000D+00
    2.000000000000D+00 0.000000000000D+00-1.117587089539D-08 1.700000000000D+01
    2.808000000000D+05 0.000000000000D+00
23 15 02 25 06 00  0.0-9.114341810346D-05-2.614797267597D-12 0.000000000000D+00
    1.000000000000D+01 6.359375000000D+01 4.662337182992D-09 2.311598348333D+00
    3.261491656303D-06 9.800320141949D-03 8.521601557732D-06 5.153662847519D+03
    2.808000000000D+05-2.104789018631D-07 1.795450708003D+00-5.587935447693D-08
    9.488812351579D-01 2.105312500000D+02-2.712149313665D+00-8.113909544250D-09
   -2.857261953079D-12 1.000000000000D+00 1.833000000000D+03 0.000000000000D+00
    2.000000000000D+00 0.000000000000D+00-2.002343535423D-08 1.000000000000D+01
    2.808000000000D+05 0.000000000000D+00
32 15 02 25 05 59 44.0-2.154330722988D-04 9.208633855451D-12 0.000000000000D+00
    1.000000000000D+00-7.375000000000D+00 4.808414555413D-09 1.283200079554D+00
   -3.278255462646D-07 1.131251419429D-02 9.128823876381D-06 5.153571323395D+03
    2.807840000000D+05-8.009374141693D-08 8.247901351112D-01 2.216547727585D-07
    9.471964070352D-01 1.964687500000D+02 2.393035249809D-02-8.101409321171D-09
   -4.171602230318D-10 1.000000000000D+00 1.833000000000D+03 0.000000000000D+00
    2.000000000000D+00 0.000000000000D+00-3.725290298462D-09 1.000000000000D+00
    2.807840000000D+05 0.000000000000D+00
17 15 02 25 06 00  0.0-1.577902585268D-04-2.046363078989D-12 0.000000000000D+00
    9.700000000000D+01-2.100000000000D+01 4.316251356329D-09-2.733987514834D+00
   -1.024454832077D-06 1.008156046737D-02 8.916482329369D-06 5.153725116730D+03
    2.808000000000D+05 1.359730958939D-07-1.307904086038D+00-7.078051567078D-08
    9.712532185608D-01 2.100937500000D+02-2.028807517805D+00-7.813182989480D-09
    3.178703966711D-10 1.000000000000D+00 1.833000000000D+03 0.000000000000D+00
    2.000000000000D+00 0.000000000000D+00-1.071020960808D-08 9.700000000000D+01
    2.808000000000D+05 0.000000000000D+00
11 15 02 25 08 00  0.0-5.602603778243D-04-2.614797267597D-12 0.000000000000D+00
    4.600000000000D+01-1.243750000000D+01 6.298119359371D-09 1.913400271682D+00
   -9.052455425262D-07 1.562095701229D-02 6.707385182381D-06 5.153724138260D+03
    2.880000000000D+05 7.078051567078D-08-6.424299649067D-01-4.097819328308D-07
    8.925845077275D-01 2.117812500000D+02 1.383423413664D+00-8.755007385730D-09
    2.596536596844D-10 1.000000000000D+00 1.833000000000D+03 0.000000000000D+00
    2.000000000000D+00 0.000000000000D+00-1.210719347000D-08 4.600000000000D+01
    2.880000000000D+05 0.000000000000D+00
 1 15 02 25 08 00  0.0-8.621253073215D-06 4.547473508865D-13 0.000000000000D+00
    7.200000000000D+01-1.128125000000D+01 4.788056617855D-09 2.428191094991D+00
   -5.774199962616D-07 3.904049750417D-03 6.921589374542D-06 5.153666049957D+03
    2.880000000000D+05-1.434236764908D-07-2.984190205215D-01-4.842877388000D-08
    9.621794296753D-01 2.465000000000D+02 3.984001173412D-01-8.089622305363D-09
    1.446488762102D-10 1.000000000000D+00 1.833000000000D+03 0.000000000000D+00
    2.000000000000D+00 0.000000000000D+00 5.587935447693D-09 7.200000000000D+01
    2.880000000000D+05 0.000000000000D+00
 3 15 02 25 08 00  0.0 2.274019643664D-04 1.944044925040D-11 0.000000000000D+00
    6.100000000000D+01-1.478125000000D+01 4.624835625577D-09-1.574336360332D+00
   -7.990747690201D-07 9.480520384386D-04 8.834525942802D-06 5.153739707947D+03
    2.880000000000D+05-2.607703208923D-08 7.417201767197D-01-2.793967723846D-08
    9.595261673392D-01 2.068750000000D+02-2.944968938486D+00-8.025334174988D-09
   -3.017982808107D-10 1.000000000000D+00 1.833000000000D+03 0.000000000000D+00
    2.000000000000D+00 0.000000000000D+00 1.396983861923D-09 6.100000000000D+01
    2.880000000000D+05 0.000000000000D+00
 4 15 02 25 08 00  0.0-7.853843271732D-06-7.958078640513D-13 0.000000000000D+00
    8.000000000000D+01-1.278125000000D+01 5.241289624536D-09 2.222464761275D+00
   -8.605420589447D-07 1.105169916991D-02 6.904825568199D-06 5.153721624374D+03
    2.880000000000D+05-6.705522537231D-08-3.185990493978D-01-2.570450305939D-07
    9.398146862540D-01 2.331875000000D+02 1.051429526454D+00-8.253200789454D-09
    1.346484590492D-10 1.000000000000D+00 1.833000000000D+03 0.000000000000D+00
    2.000000000000D+00 0.000000000000D+00-6.519258022308D-09 8.000000000000D+01
    2.880000000000D+05 0.000000000000D+00
14 15 02 25 08 00  0.0 8.423347026110D-05-3.524291969370D-12 0.000000000000D+00
    5.300000000000D+01 8.343750000000D+01 4.232318939756D-09-1.858521304975D+00
    4.261732101440D-06 7.751864497550D-03 9.186565876007D-06 5.153791257858D+03
    2.880000000000D+05 2.272427082062D-07 1.865691661889D+00-6.146728992462D-08
    9.671153123490D-01 2.066875000000D+02-1.974632630164D+00-7.831397752511D-09
   -3.571577408823D-11 1.000000000000D+00 1.833000000000D+03 0.000000000000D+00
    2.000000000000D+00 0.000000000000D+00-9.313225746155D-09 5.300000000000D+01
    2.880000000000D+05 0.000000000000D+00
